EUTELSAT 7A             
1 28187U 04008A   25340.32457243  .00000107  00000+0  00000+0 0  9998
2 28187   5.3412  74.3201 0001511 210.9560 127.7244  1.00270244 79419
EUTELSAT 174A           
1 28924U 05052A   25340.17585483  .00000015  00000+0  00000+0 0  9996
2 28924   3.7307  78.9257 0006617 175.9886  57.5942  1.00271576 50397
EUTELSAT HOTBIRD 13B    
1 29270U 06032A   25340.29060220  .00000163  00000+0  00000+0 0  9994
2 29270   1.1631  84.4142 0003786 168.9828 319.6494  1.00273003 45374
EUTELSAT HOTBIRD 13C    
1 33459U 08065A   25340.27569543 -.00000269  00000+0  00000+0 0  9994
2 33459   2.4541  81.4885 0001431 200.4342 210.3745  1.00048053 45417
EUTELSAT 36B            
1 36101U 09065A   25340.24072606  .00000120  00000+0  00000+0 0  9993
2 36101   0.0384 349.5617 0006540 265.7958 317.0749  1.00270632 58779
EUTELSAT KA-SAT 9A      
1 37258U 10069A   25339.85947329  .00000072  00000+0  00000+0 0  9997
2 37258   0.0519 331.0638 0001378 213.6618 208.6154  1.00272625 42065
EUTELSAT 7 WEST A       
1 37816U 11051A   25340.28262882 -.00000052  00000+0  00000+0 0  9991
2 37816   0.0661  13.2607 0005969 215.5599 300.9545  1.00271720 51949
EUTELSAT 16A            
1 37836U 11057A   25340.28722218  .00000112  00000+0  00000+0 0  9999
2 37836   0.0582 354.1528 0005883 265.0147 295.5692  1.00269759  5395
